{"type": "FeatureCollection", "features": [ {"type": "Feature", "properties": {"norad_id": 67064, "name": "HULIANWANG DIGUI 16F", "group": "last-30-days", "lat": 41.223004294209524, "lon": 128.62622655683458, "alt_km": 804.6724822875476, "timestamp": "2025-12-16T13:52:36.289694+00:00", "meta": {"OBJECT_NAME": "HULIANWANG DIGUI 16F", "OBJECT_ID": "2025-295F", "EPOCH": "2025-12-12T05:06:22.414752", "MEAN_MOTION": 14.26957674, "ECCENTRICITY": 0.00149026, "INCLINATION": 50.0027, "RA_OF_ASC_NODE": 14.4596, "ARG_OF_PERICENTER": 247.8107, "MEAN_ANOMALY": 112.1227, "EPHEMERIS_TYPE": 0, "CLASSIFICATION_TYPE": "U", "NORAD_CAT_ID": 67064, "ELEMENT_SET_NO": 999, "REV_AT_EPOCH": 4, "BSTAR": 2.6251967e-05, "MEAN_MOTION_DOT": -9.6e-07, "MEAN_MOTION_DDOT": 0}, "tle": {"line1": "1 67064U 25295F   25346.21275943 -.00000096  00000+0  26252-4 0  9995", "line2": "2 67064  50.0027  14.4596 0014902 247.8107 112.1227 14.26957674    44"}}, "geometry": {"type": "Point", "coordinates": [128.62622655683458, 41.223004294209524]}}, {"type": "Feature", "properties": {"norad_id": 67066, "name": "HULIANWANG DIGUI 16H", "group": "last-30-days", "lat": 45.02753405312792, "lon": 118.82081822306054, "alt_km": 804.6416520388184, "timestamp": "2025-12-16T13:52:36.289704+00:00", "meta": {"OBJECT_NAME": "HULIANWANG DIGUI 16H", "OBJECT_ID": "2025-295H", "EPOCH": "2025-12-12T05:06:20.088000", "MEAN_MOTION": 14.26429655, "ECCENTRICITY": 0.00114905, "INCLINATION": 50.0029, "RA_OF_ASC_NODE": 14.4606, "ARG_OF_PERICENTER": 248.6611, "MEAN_ANOMALY": 111.3077, "EPHEMERIS_TYPE": 0, "CLASSIFICATION_TYPE": "U", "NORAD_CAT_ID": 67066, "ELEMENT_SET_NO": 999, "REV_AT_EPOCH": 4, "BSTAR": 2.4353642e-05, "MEAN_MOTION_DOT": -1.01e-06, "MEAN_MOTION_DDOT": 0}, "tle": {"line1": "1 67066U 25295H   25346.21273250 -.00000101  00000+0  24354-4 0  9994", "line2": "2 67066  50.0029  14.4606 0011490 248.6611 111.3077 14.26429655    45"}}, "geometry": {"type": "Point", "coordinates": [118.82081822306054, 45.02753405312792]}}, {"type": "Feature", "properties": {"norad_id": 67067, "name": "HULIANWANG DIGUI 16J", "group": "last-30-days", "lat": 45.421570850011015, "lon": 117.58555081780477, "alt_km": 804.4907155823275, "timestamp": "2025-12-16T13:52:36.289716+00:00", "meta": {"OBJECT_NAME": "HULIANWANG DIGUI 16J", "OBJECT_ID": "2025-295J", "EPOCH": "2025-12-12T05:06:18.555264", "MEAN_MOTION": 14.26361638, "ECCENTRICITY": 0.00104901, "INCLINATION": 50.0044, "RA_OF_ASC_NODE": 14.4694, "ARG_OF_PERICENTER": 253.0387, "MEAN_ANOMALY": 106.9378, "EPHEMERIS_TYPE": 0, "CLASSIFICATION_TYPE": "U", "NORAD_CAT_ID": 67067, "ELEMENT_SET_NO": 999, "REV_AT_EPOCH": 4, "BSTAR": 6.475965e-06, "MEAN_MOTION_DOT": -1.45e-06, "MEAN_MOTION_DDOT": 0}, "tle": {"line1": "1 67067U 25295J   25346.21271476 -.00000145  00000+0  64760-5 0  9997", "line2": "2 67067  50.0044  14.4694 0010490 253.0387 106.9378 14.26361638    49"}}, "geometry": {"type": "Point", "coordinates": [117.58555081780477, 45.421570850011015]}}, {"type": "Feature", "properties": {"norad_id": 67069, "name": "2025-296A", "group": "last-30-days", "lat": -29.145792299053298, "lon": 40.32378592614167, "alt_km": 518.8243944268843, "timestamp": "2025-12-16T13:52:36.289726+00:00", "meta": {"OBJECT_NAME": "2025-296A", "OBJECT_ID": "2025-296A", "EPOCH": "2025-12-15T23:51:49.221216", "MEAN_MOTION": 15.16900751, "ECCENTRICITY": 0.00142937, "INCLINATION": 41.3517, "RA_OF_ASC_NODE": 83.0038, "ARG_OF_PERICENTER": 45.3752, "MEAN_ANOMALY": 314.8233, "EPHEMERIS_TYPE": 0, "CLASSIFICATION_TYPE": "U", "NORAD_CAT_ID": 67069, "ELEMENT_SET_NO": 999, "REV_AT_EPOCH": 45, "BSTAR": 0.00044059878, "MEAN_MOTION_DOT": 8.677e-05, "MEAN_MOTION_DDOT": 0}, "tle": {"line1": "1 67069U 25296A   25349.99431969  .00008677  00000+0  44060-3 0  9999", "line2": "2 67069  41.3517  83.0038 0014293  45.3752 314.8233 15.16900751   456"}}, "geometry": {"type": "Point", "coordinates": [40.32378592614167, -29.145792299053298]}}, {"type": "Feature", "properties": {"norad_id": 67070, "name": "2025-296B", "group": "last-30-days", "lat": -27.017448601144967, "lon": 44.23656597545761, "alt_km": 517.179889262602, "timestamp": "2025-12-16T13:52:36.289736+00:00", "meta": {"OBJECT_NAME": "2025-296B", "OBJECT_ID": "2025-296B", "EPOCH": "2025-12-15T14:22:08.198400", "MEAN_MOTION": 15.17174125, "ECCENTRICITY": 0.00160035, "INCLINATION": 41.3531, "RA_OF_ASC_NODE": 85.2597, "ARG_OF_PERICENTER": 42.3814, "MEAN_ANOMALY": 317.8241, "EPHEMERIS_TYPE": 0, "CLASSIFICATION_TYPE": "U", "NORAD_CAT_ID": 67070, "ELEMENT_SET_NO": 999, "REV_AT_EPOCH": 38, "BSTAR": 8.1548791e-05, "MEAN_MOTION_DOT": 1.448e-05, "MEAN_MOTION_DDOT": 0}, "tle": {"line1": "1 67070U 25296B   25349.59870600  .00001448  00000+0  81549-4 0  9999", "line2": "2 67070  41.3531  85.2597 0016003  42.3814 317.8241 15.17174125   388"}}, "geometry": {"type": "Point", "coordinates": [44.23656597545761, -27.017448601144967]}}, {"type": "Feature", "properties": {"norad_id": 67071, "name": "KZ-11 R/B", "group": "last-30-days", "lat": -23.755156765202518, "lon": -68.61835748416529, "alt_km": 951.1002806541446, "timestamp": "2025-12-16T13:52:36.289746+00:00", "meta": {"OBJECT_NAME": "KZ-11 R/B", "OBJECT_ID": "2025-296C", "EPOCH": "2025-12-15T17:09:47.995776", "MEAN_MOTION": 14.58622367, "ECCENTRICITY": 0.07956316, "INCLINATION": 41.344, "RA_OF_ASC_NODE": 85.9238, "ARG_OF_PERICENTER": 336.179, "MEAN_ANOMALY": 20.4018, "EPHEMERIS_TYPE": 0, "CLASSIFICATION_TYPE": "U", "NORAD_CAT_ID": 67071, "ELEMENT_SET_NO": 999, "REV_AT_EPOCH": 39, "BSTAR": 0.00044822831, "MEAN_MOTION_DOT": 0.04090434, "MEAN_MOTION_DDOT": 5.284999e-06}, "tle": {"line1": "1 67071U 25296C   25349.71513884  .04090434  52850-5  44823-3 0  9998", "line2": "2 67071  41.3440  85.9238 0795631 336.1790  20.4018 14.58622367   395"}}, "geometry": {"type": "Point", "coordinates": [-68.61835748416529, -23.755156765202518]}}, {"type": "Feature", "properties": {"norad_id": 67072, "name": "ELECTRON R/B", "group": "last-30-days", "lat": 5.948392330479389, "lon": 137.4838767421622, "alt_km": 475.91726269436367, "timestamp": "2025-12-16T13:52:36.289756+00:00", "meta": {"OBJECT_NAME": "ELECTRON R/B", "OBJECT_ID": "2025-297A", "EPOCH": "2025-12-15T22:36:40.336992", "MEAN_MOTION": 15.74906784, "ECCENTRICITY": 0.02473954, "INCLINATION": 97.4806, "RA_OF_ASC_NODE": 137.5814, "ARG_OF_PERICENTER": 220.6839, "MEAN_ANOMALY": 137.5717, "EPHEMERIS_TYPE": 0, "CLASSIFICATION_TYPE": "U", "NORAD_CAT_ID": 67072, "ELEMENT_SET_NO": 999, "REV_AT_EPOCH": 29, "BSTAR": 0.0013310064, "MEAN_MOTION_DOT": 0.01736878, "MEAN_MOTION_DDOT": 2.24443e-06}, "tle": {"line1": "1 67072U 25297A   25349.94213353  .01736878  22444-5  13310-2 0  9991", "line2": "2 67072  97.4806 137.5814 0247395 220.6839 137.5717 15.74906784   290"}}, "geometry": {"type": "Point", "coordinates": [137.4838767421622, 5.948392330479389]}}, {"type": "Feature", "properties": {"norad_id": 67073, "name": "RAISE-4", "group": "last-30-days", "lat": 25.930511818270205, "lon": -38.31077728720172, "alt_km": 551.3461456796495, "timestamp": "2025-12-16T13:52:36.289766+00:00", "meta": {"OBJECT_NAME": "RAISE-4", "OBJECT_ID": "2025-297B", "EPOCH": "2025-12-15T21:15:43.405920", "MEAN_MOTION": 15.07151436, "ECCENTRICITY": 0.0011743, "INCLINATION": 97.485, "RA_OF_ASC_NODE": 137.3506, "ARG_OF_PERICENTER": 309.363, "MEAN_ANOMALY": 50.6557, "EPHEMERIS_TYPE": 0, "CLASSIFICATION_TYPE": "U", "NORAD_CAT_ID": 67073, "ELEMENT_SET_NO": 999, "REV_AT_EPOCH": 26, "BSTAR": 0.00025306157, "MEAN_MOTION_DOT": 3.749e-05, "MEAN_MOTION_DDOT": 0}, "tle": {"line1": "1 67073U 25297B   25349.88591905  .00003749  00000+0  25306-3 0  9997", "line2": "2 67073  97.4850 137.3506 0011743 309.3630  50.6557 15.07151436   262"}}, "geometry": {"type": "Point", "coordinates": [-38.31077728720172, 25.930511818270205]}}, {"type": "Feature", "properties": {"norad_id": 67074, "name": "ELECTRON KICK STAGE R/B", "group": "last-30-days", "lat": -18.24867429668474, "lon": -44.27322651847244, "alt_km": 330.31211861639713, "timestamp": "2025-12-16T13:52:36.289776+00:00", "meta": {"OBJECT_NAME": "ELECTRON KICK STAGE R/B", "OBJECT_ID": "2025-297C", "EPOCH": "2025-12-15T21:33:35.016480", "MEAN_MOTION": 15.54435727, "ECCENTRICITY": 0.02071475, "INCLINATION": 97.4818, "RA_OF_ASC_NODE": 137.4993, "ARG_OF_PERICENTER": 258.0291, "MEAN_ANOMALY": 99.7676, "EPHEMERIS_TYPE": 0, "CLASSIFICATION_TYPE": "U", "NORAD_CAT_ID": 67074, "ELEMENT_SET_NO": 999, "REV_AT_EPOCH": 27, "BSTAR": 0.0013632328, "MEAN_MOTION_DOT": 0.0023846, "MEAN_MOTION_DDOT": 1.6758175e-05}, "tle": {"line1": "1 67074U 25297C   25349.89832195  .00238460  16758-4  13632-2 0  9998", "line2": "2 67074  97.4818 137.4993 0207147 258.0291  99.7676 15.54435727   273"}}, "geometry": {"type": "Point", "coordinates": [-44.27322651847244, -18.24867429668474]}}]}